34D/Gale,e,10.5826,57.8663,218.0299,5.016156,0.0877299,0.75792799,307.5080,01/04.0/2025,2000,g  9.0,4.0
# From  15, 452
35P/Herschel-Rigollet,e,64.740,356.319,29.160,28.5376,0.006465,0.9743822,0.000,04/04.7325/2092,2000,g  9.0,4.0
# From MPEC 2023-RF3
36P/Whipple,e,9.9476,181.8341,201.1993,4.140459,0.1169853,0.26839001,196.1576,01/04.0/2025,2000,g  8.5,6.0
# From MPEC 2025-A40
37P/Forbes,e,8.9478,314.5495,330.0637,3.462217,0.1529934,0.53272177,12.9666,01/04.0/2025,2000,g 10.5,4.8
# From MPEC 2024-YC7
38P/Stephan-Oterma,e,18.4166,77.8579,359.5734,11.25925,0.0260879,0.85983040,58.5240,01/04.0/2025,2000,g  3.5,12.0
# From MPEC 2024-AF0
39P/Oterma,e,1.6828,289.7868,112.9242,6.995948,0.0532641,0.17989026,26.6457,01/04.0/2025,2000,g  7.0,6.0
# From MPEC 2025-A40
40P/Vaisala,e,11.6295,128.9402,51.9658,4.956349,0.0893226,0.63201189,332.1452,01/04.0/2025,2000,g  5.5,12.0
# From MPEC 2023-SQ0
41P/Tuttle-Giacobini-Kresak,e,9.2162,140.9718,62.2260,3.088011,0.1816292,0.65954707,153.2288,01/04.0/2025,2000,g 10.0,16.0
# From MPC 94283
42P/Neujmin,e,3.9883,150.1542,147.1580,4.877955,0.0914845,0.58401993,325.6018,01/04.0/2025,2000,g 13.0,6.0
# From MPEC 2025-A40
43P/Wolf-Harrington,e,9.3341,243.9955,223.8857,4.329957,0.1093903,0.43594300,336.7028,01/04.0/2025,2000,g  8.0,6.0
# From MPEC 2024-F34
44P/Reinmuth,e,5.8959,286.4223,58.0120,3.687803,0.1391722,0.42683007,137.4475,01/04.0/2025,2000,g  8.3,6.0
# From MPEC 2022-O01
45P/Honda-Mrkos-Pajdusakova,e,4.3242,87.6851,327.9480,3.056702,0.1844270,0.81770526,181.2323,01/04.0/2025,2000,g 13.5,8.0
# From MPEC 2024-F91
46P/Wirtanen,e,11.7499,82.1607,356.3287,3.091485,0.1813232,0.65876321,41.6859,01/04.0/2025,2000,g 14.0,6.0
# From MPEC 2024-PC5
47P/Ashbrook-Jackson,e,13.0377,356.8876,357.8992,4.118496,0.1179224,0.31833258,324.9847,01/04.0/2025,2000,g  1.0,11.2
# From MPEC 2024-UA9
48P/Johnson,e,12.2017,110.0641,216.7775,3.499688,0.1505428,0.42664388,351.3214,01/04.0/2025,2000,g 10.0,6.0
# From MPEC 2025-A40
49P/Arend-Rigaux,e,19.0587,118.7936,332.9369,3.569737,0.1461335,0.59903813,345.8799,01/04.0/2025,2000,g 11.3,4.4
# From MPEC 2025-A40
50P/Arend,e,19.0990,355.1480,49.3291,4.088230,0.1192342,0.52985299,28.1754,01/04.0/2025,2000,g  9.5,6.0
# From MPEC 2023-J29
51P/Harrington,e,5.4263,83.6576,269.2440,3.705448,0.1381793,0.54290128,114.1493,01/04.0/2025,2000,g 10.0,8.0
# From NK 3014
51P-A/Harrington,e,5.4262,269.2295,83.6524,3.706701,0.1381092,0.54309301,113.7352,01/04.0/2025,2000,g 10.0,8.0
# From MPEC 2023-J29
51P-D/Harrington,e,5.4268,83.6459,269.2621,3.705802,0.1381595,0.54303124,114.0745,01/04.0/2025,2000,g 16.0,8.0
# From MPEC 2023-XP6
52P/Harrington-Abell,e,10.2359,336.7661,139.5939,3.862223,0.1298518,0.54100740,154.0101,01/04.0/2025,2000,g 13.5,6.0
# From MPEC 2023-TM6
53P/VanBiesbroeck,e,6.6026,148.8515,134.3658,5.438235,0.0777172,0.54953262,247.1012,01/04.0/2025,2000,g  7.7,4.8
# From MPEC 2024-YC7
54P/deVico-Swift-NEAT,e,6.0636,358.7947,2.0006,3.787065,0.1337365,0.42648767,16.3184,01/04.0/2025,2000,g 10.0,6.0
# From MPC 31070
55P/Tempel-Tuttle,e,162.4933,235.4163,172.4798,10.34128,0.0296376,0.90564606,290.9606,01/04.0/2025,2000,g  9.0,4.0
# From MPEC 2023-TM6
56P/Slaughter-Burnham,e,8.1551,345.9051,44.2018,5.063396,0.0865050,0.50849952,266.6398,01/04.0/2025,2000,g  8.5,6.0
# From MPEC 2024-DC6
57P/duToit-Neujmin-Delporte,e,2.8527,188.7596,115.0613,3.441546,0.1543739,0.50096107,181.4703,01/04.0/2025,2000,g 12.5,6.0
# From MPEC 2024-A43
58P/Jackson-Neujmin,e,13.0915,159.0493,200.5808,4.090564,0.1191322,0.66189200,200.4708,01/04.0/2025,2000,g 15.5,6.0
# From MPEC 2023-A50
59P/Kearns-Kwee,e,9.3543,312.7330,127.6447,4.479755,0.1039496,0.47702132,238.7624,01/04.0/2025,2000,g  7.0,6.0
# From MPEC 2025-A40
60P/Tsuchinshan,e,3.5797,267.3982,216.9416,3.529724,0.1486254,0.53383768,330.6236,01/04.0/2025,2000,g 11.5,6.0
# From MPEC 2024-JU4
61P/Shajn-Schaldach,e,5.9978,162.9636,221.6966,3.690057,0.1390447,0.42327919,111.7079,01/04.0/2025,2000,g  6.0,10.0
# From MPEC 2024-YC7
62P/Tsuchinshan,e,4.7374,68.6664,47.3184,3.370470,0.1592826,0.62468395,59.8647,01/04.0/2025,2000,g  8.0,10.0
# From MPC 84320
63P/Wild,e,19.6295,357.8117,168.8182,5.644475,0.0734969,0.65063201,319.6940,01/04.0/2025,2000,g 10.5,6.0
# From MPEC 2024-A43
64P/Swift-Gehrels,e,8.9530,299.7847,97.3231,4.452103,0.1049195,0.68859528,236.0105,01/04.0/2025,2000,g  9.5,12.0
# From MPEC 2024-R10
65P/Gunn,e,9.1758,61.9767,213.7003,3.891709,0.1283789,0.24810444,338.9978,01/04.0/2025,2000,g  5.0,6.0
# From MPEC 2021-F20
66P/duToit,e,18.6436,21.8211,257.4179,6.070683,0.0658943,0.78499576,159.9297,01/04.0/2025,2000,g 15.0,4.0
# From MPEC 2024-C04
67P/Churyumov-Gerasimenko,e,3.8695,36.3220,22.1967,3.458399,0.1532468,0.64995611,177.5124,01/04.0/2025,2000,g 11.0,4.0
# From MPEC 2023-HD1
68P/Klemola,e,11.1022,175.0834,153.2432,4.963043,0.0891419,0.63596404,168.0336,01/04.0/2025,2000,g 12.6,4.0
# From MPEC 2024-C04
69P/Taylor,e,22.0613,104.8082,343.4696,3.881210,0.1289002,0.41466915,272.6979,01/04.0/2025,2000,g  9.5,12.0
# From MPEC 2023-VM5
70P/Kojima,e,6.6023,119.2355,1.7812,3.675672,0.1398618,0.45468293,161.8466,01/04.0/2025,2000,g 11.0,6.0
# From MPEC 2024-YC7
71P/Clark,e,9.3886,59.3758,209.9452,3.163225,0.1751898,0.49116990,124.6781,01/04.0/2025,2000,g  9.8,6.0
# From MPEC 2023-VM5
72P/Denning-Fujikawa,e,10.9464,26.7109,346.7449,4.307594,0.1102432,0.81846168,62.6531,01/04.0/2025,2000,g 17.5,10.0
# From MPEC 2023-RF3
73P/Schwassmann-Wachmann,e,11.0405,69.2149,199.0200,3.051859,0.1848662,0.70631995,157.2935,01/04.0/2025,2000,g 11.5,6.0
# From NK 1613
73P-B/Schwassmann-Wachmann B,e,10.9110,196.7221,71.7800,3.075139,0.1827709,0.69527062,156.0135,01/04.0/2025,2000,g  9.0,4.0
# From NK 2710
73P-C/Schwassmann-Wachmann,e,10.9197,196.8646,71.6728,3.073984,0.1828739,0.69491661,156.8572,01/04.0/2025,2000,g  9.0,4.0
# From NK 934
73P-E/Schwassmann-Wachmann,e,10.8864,196.4638,72.0062,3.078590,0.1824636,0.69595879,154.1221,01/04.0/2025,2000,g  9.0,4.0
# From MPC 56796
73P-G/Schwassmann-Wachmann,e,11.388,69.909,198.772,3.06230,0.183922,0.6933024,359.982,06/08.0/2006,2000,g  9.0,4.0
# From MPC 56796
73P-H/Schwassmann-Wachmann,e,11.389,69.903,198.778,3.06223,0.183927,0.6933024,359.948,06/08.0/2006,2000,g  9.0,4.0
# From MPC 56796
73P-J/Schwassmann-Wachmann,e,11.386,69.983,198.673,3.06380,0.183786,0.6933024,359.974,06/08.0/2006,2000,g  9.0,4.0
# From MPC 56797
73P-K/Schwassmann-Wachmann,e,11.390,69.881,198.809,3.06176,0.183970,0.6933024,359.959,06/08.0/2006,2000,g  9.0,4.0
# From MPC 56797
73P-L/Schwassmann-Wachmann,e,11.388,69.911,198.772,3.06211,0.183938,0.6933024,359.937,06/08.0/2006,2000,g  9.0,4.0
# From MPC 56797
73P-M/Schwassmann-Wachmann,e,11.389,69.895,198.787,3.06205,0.183944,0.6933024,359.952,06/08.0/2006,2000,g  9.0,4.0
# From MPC 56797
73P-N/Schwassmann-Wachmann,e,11.389,69.909,198.754,3.06231,0.183921,0.6933024,359.952,06/08.0/2006,2000,g  9.0,4.0
# From MPC 56797
73P-P/Schwassmann-Wachmann,e,11.390,69.900,198.783,3.06222,0.183929,0.6933024,359.839,06/07.0/2006,2000,g  9.0,4.0
# From MPC 56797
73P-Q/Schwassmann-Wachmann,e,11.387,69.944,198.717,3.06298,0.183860,0.6933024,359.867,06/07.0/2006,2000,g  9.0,4.0
# From MPC 56797
73P-R/Schwassmann-Wachmann,e,11.388,69.904,198.776,3.06224,0.183927,0.6933024,359.966,06/08.0/2006,2000,g  9.0,4.0
# From MPC 56797
73P-S/Schwassmann-Wachmann,e,11.127,77.364,188.229,3.22719,0.170007,0.6933024,359.883,06/08.0/2006,2000,g  9.0,4.0
# From MPEC 2023-J29
73P-T/Schwassmann-Wachmann,e,11.0526,69.2292,199.0036,3.051137,0.1849318,0.70595698,157.5973,01/04.0/2025,2000,g  9.0,4.0
# From MPC 56797
73P-U/Schwassmann-Wachmann,e,11.384,69.994,198.659,3.06366,0.183799,0.6933024,359.997,06/09.0/2006,2000,g  9.0,4.0
# From MPC 56797
73P-V/Schwassmann-Wachmann,e,11.651,65.236,204.943,2.97417,0.192156,0.6933024,359.908,06/08.0/2006,2000,g  9.0,4.0
# From MPC 56797
73P-W/Schwassmann-Wachmann,e,11.390,69.884,198.803,3.06185,0.183962,0.6933024,359.908,06/08.0/2006,2000,g  9.0,4.0
# From MPC 56798
73P-X/Schwassmann-Wachmann,e,11.388,69.900,198.778,3.06207,0.183942,0.6933024,359.896,06/08.0/2006,2000,g  9.0,4.0
# From MPC 56798
73P-Y/Schwassmann-Wachmann,e,11.391,69.879,198.785,3.06200,0.183948,0.6933024,359.858,06/08.0/2006,2000,g  9.0,4.0
# From MPC 56798
73P-Z/Schwassmann-Wachmann,e,11.349,70.493,198.017,3.07155,0.183091,0.6933024,359.943,06/08.0/2006,2000,g  9.0,4.0
# From MPC 56798
73P-AA/Schwassmann-Wachmann,e,11.390,69.883,198.804,3.06182,0.183965,0.6933024,359.984,06/09.0/2006,2000,g  9.0,4.0
# From MPC 56798
73P-AB/Schwassmann-Wachmann,e,11.390,69.888,198.792,3.06183,0.183964,0.6933024,359.872,06/08.0/2006,2000,g  9.0,4.0
# From MPC 56798
73P-AC/Schwassmann-Wachmann,e,11.387,69.914,198.766,3.06223,0.183927,0.6933024,359.872,06/08.0/2006,2000,g  9.0,4.0
# From MPC 56798
73P-AD/Schwassmann-Wachmann,e,11.355,70.416,198.119,3.07035,0.183198,0.6933024,359.873,06/08.0/2006,2000,g  9.0,4.0
# From MPC 56798
73P-AE/Schwassmann-Wachmann,e,11.390,69.891,198.790,3.06196,0.183952,0.6933024,359.935,06/08.0/2006,2000,g  9.0,4.0
# From MPC 56798
73P-AF/Schwassmann-Wachmann,e,11.356,70.302,198.217,3.06961,0.183265,0.6933024,359.846,06/06.0/2006,2000,g  9.0,4.0
# From MPC 56798
73P-AG/Schwassmann-Wachmann,e,11.386,69.932,198.724,3.06233,0.183919,0.6933024,359.997,06/09.0/2006,2000,g  9.0,4.0
# From MPC 56798
73P-AH/Schwassmann-Wachmann,e,11.331,70.695,197.755,3.07445,0.182832,0.6933024,359.885,06/08.0/2006,2000,g  9.0,4.0
# From MPC 56798
73P-AI/Schwassmann-Wachmann,e,11.392,69.885,198.806,3.06205,0.183944,0.6933024,359.864,06/08.0/2006,2000,g  9.0,4.0
# From MPC 56799
73P-AJ/Schwassmann-Wachmann,e,11.385,70.041,198.663,3.06262,0.183892,0.6933024,359.864,06/08.0/2006,2000,g  9.0,4.0
# From MPC 56799
73P-AK/Schwassmann-Wachmann,e,11.389,69.784,198.822,3.06244,0.183909,0.6933024,359.927,06/08.0/2006,2000,g  9.0,4.0
# From MPC 56799
73P-AL/Schwassmann-Wachmann,e,11.395,69.843,198.857,3.06140,0.184003,0.6933024,359.916,06/08.0/2006,2000,g  9.0,4.0
# From MPC 56799
